[
  {
    "name": "PLEIADES NEO 3",
    "line1": "1 48268U 21034A   26007.86353939 -.00000158  00000+0 -13492-4 0  9997",
    "line2": "2 48268  97.8941  84.9303 0001342  86.8283 273.3083 14.81672304253912",
    "catNr": 48268
  },
  {
    "name": "PLEIADES NEO 4",
    "line1": "1 49070U 21073E   26007.82976253  .00000000  00000+0  66504-5 0  9995",
    "line2": "2 49070  97.8942  84.8927 0001263  91.8210 268.3148 14.81670545237625",
    "catNr": 49070
  }
]